{"fetched_at":"2026-03-29T16:36:15Z","count":15609,"tles":[{"name":"STARLINK-3056","line1":"1 49159U 21082AF  26087.84903339  .00000327  00000+0  35229-4 0  9999","line2":"2 49159  69.9989 246.1440 0003068 268.5106  91.5702 14.98332712249948","category":"Starlink"}]}